{
  "type": "FeatureCollection",
  "features": [
    {
      "type": "Feature",
      "properties": {
        "norad_id": 32088,
        "name": "FENGYUN 1C DEB",
        "group": "fengyun-1c-debris",
        "lat": 32.48750379050658,
        "lon": 55.763786237059044,
        "alt_km": 1510.1278476330654,
        "timestamp": "2025-12-25T07:00:34.333865+00:00",
        "meta_object_name": "FENGYUN 1C DEB",
        "meta_object_id": "1999-025CQE",
        "meta_epoch": "2025-12-23T10:46:45.629472",
        "meta_mean_motion": 13.25224895,
        "meta_eccentricity": 0.0461755,
        "meta_inclination": 102.4001,
        "meta_ra_of_asc_node": 225.5123,
        "meta_arg_of_pericenter": 334.191,
        "meta_mean_anomaly": 23.6804,
        "meta_ephemeris_type": 0,
        "meta_classification_type": "U",
        "meta_norad_cat_id": 32088,
        "meta_element_set_no": 999,
        "meta_rev_at_epoch": 59986,
        "meta_bstar": 0.002907038,
        "meta_mean_motion_dot": 2.182e-05,
        "meta_mean_motion_ddot": 0,
        "tle_line1": "1 32088U 99025CQE 25357.44913923  .00002182  00000+0  29070-2 0  9995",
        "tle_line2": "2 32088 102.4001 225.5123 0461755 334.1910  23.6804 13.25224895599861"
      },
      "geometry": {
        "type": "Point",
        "coordinates": [
          55.763786237059044,
          32.48750379050658
        ]
      }
    },
    {
      "type": "Feature",
      "properties": {
        "norad_id": 32089,
        "name": "FENGYUN 1C DEB",
        "group": "fengyun-1c-debris",
        "lat": -69.51539254741319,
        "lon": 28.533524621567487,
        "alt_km": 928.6382900037843,
        "timestamp": "2025-12-25T07:00:34.333876+00:00",
        "meta_object_name": "FENGYUN 1C DEB",
        "meta_object_id": "1999-025CQF",
        "meta_epoch": "2025-12-23T06:06:14.384160",
        "meta_mean_motion": 14.14091196,
        "meta_eccentricity": 0.01123625,
        "meta_inclination": 98.6546,
        "meta_ra_of_asc_node": 2.4994,
        "meta_arg_of_pericenter": 94.1409,
        "meta_mean_anomaly": 267.2615,
        "meta_ephemeris_type": 0,
        "meta_classification_type": "U",
        "meta_norad_cat_id": 32089,
        "meta_element_set_no": 999,
        "meta_rev_at_epoch": 63364,
        "meta_bstar": 0.0004947317,
        "meta_mean_motion_dot": 9.59e-06,
        "meta_mean_motion_ddot": 0,
        "tle_line1": "1 32089U 99025CQF 25357.25433315  .00000959  00000+0  49473-3 0  9997",
        "tle_line2": "2 32089  98.6546   2.4994 0112362  94.1409 267.2615 14.14091196633649"
      },
      "geometry": {
        "type": "Point",
        "coordinates": [
          28.533524621567487,
          -69.51539254741319
        ]
      }
    },
    {
      "type": "Feature",
      "properties": {
        "norad_id": 32093,
        "name": "FENGYUN 1C DEB",
        "group": "fengyun-1c-debris",
        "lat": 9.637964942234774,
        "lon": 34.1231435275051,
        "alt_km": 814.824186571288,
        "timestamp": "2025-12-25T07:00:34.333887+00:00",
        "meta_object_name": "FENGYUN 1C DEB",
        "meta_object_id": "1999-025CQK",
        "meta_epoch": "2025-12-22T13:04:18.910848",
        "meta_mean_motion": 14.37631207,
        "meta_eccentricity": 0.00789724,
        "meta_inclination": 98.9187,
        "meta_ra_of_asc_node": 209.746,
        "meta_arg_of_pericenter": 324.7154,
        "meta_mean_anomaly": 34.8819,
        "meta_ephemeris_type": 0,
        "meta_classification_type": "U",
        "meta_norad_cat_id": 32093,
        "meta_element_set_no": 999,
        "meta_rev_at_epoch": 96658,
        "meta_bstar": 0.00037654555,
        "meta_mean_motion_dot": 1.123e-05,
        "meta_mean_motion_ddot": 0,
        "tle_line1": "1 32093U 99025CQK 25356.54466332  .00001123  00000+0  37655-3 0  9991",
        "tle_line2": "2 32093  98.9187 209.7460 0078972 324.7154  34.8819 14.37631207966589"
      },
      "geometry": {
        "type": "Point",
        "coordinates": [
          34.1231435275051,
          9.637964942234774
        ]
      }
    },
    {
      "type": "Feature",
      "properties": {
        "norad_id": 32094,
        "name": "FENGYUN 1C DEB",
        "group": "fengyun-1c-debris",
        "lat": -3.5193351967158386,
        "lon": 168.82376751612176,
        "alt_km": 843.8912412770896,
        "timestamp": "2025-12-25T07:00:34.333897+00:00",
        "meta_object_name": "FENGYUN 1C DEB",
        "meta_object_id": "1999-025CQL",
        "meta_epoch": "2025-12-21T05:06:54.522720",
        "meta_mean_motion": 14.10737989,
        "meta_eccentricity": 0.00341017,
        "meta_inclination": 98.7448,
        "meta_ra_of_asc_node": 345.3972,
        "meta_arg_of_pericenter": 243.828,
        "meta_mean_anomaly": 115.9383,
        "meta_ephemeris_type": 0,
        "meta_classification_type": "U",
        "meta_norad_cat_id": 32094,
        "meta_element_set_no": 999,
        "meta_rev_at_epoch": 94484,
        "meta_bstar": 0.00027112552,
        "meta_mean_motion_dot": 4.44e-06,
        "meta_mean_motion_ddot": 0,
        "tle_line1": "1 32094U 99025CQL 25355.21313105  .00000444  00000+0  27113-3 0  9997",
        "tle_line2": "2 32094  98.7448 345.3972 0034101 243.8280 115.9383 14.10737989944847"
      },
      "geometry": {
        "type": "Point",
        "coordinates": [
          168.82376751612176,
          -3.5193351967158386
        ]
      }
    },
    {
      "type": "Feature",
      "properties": {
        "norad_id": 32095,
        "name": "FENGYUN 1C DEB",
        "group": "fengyun-1c-debris",
        "lat": -54.541706999137205,
        "lon": -177.7959674025095,
        "alt_km": 902.7054064056092,
        "timestamp": "2025-12-25T07:00:34.333908+00:00",
        "meta_object_name": "FENGYUN 1C DEB",
        "meta_object_id": "1999-025CQM",
        "meta_epoch": "2025-12-23T18:17:35.021760",
        "meta_mean_motion": 14.16051909,
        "meta_eccentricity": 0.00789665,
        "meta_inclination": 98.6404,
        "meta_ra_of_asc_node": 13.0475,
        "meta_arg_of_pericenter": 60.9234,
        "meta_mean_anomaly": 299.9819,
        "meta_ephemeris_type": 0,
        "meta_classification_type": "U",
        "meta_norad_cat_id": 32095,
        "meta_element_set_no": 999,
        "meta_rev_at_epoch": 94973,
        "meta_bstar": 0.00024994611,
        "meta_mean_motion_dot": 4.67e-06,
        "meta_mean_motion_ddot": 0,
        "tle_line1": "1 32095U 99025CQM 25357.76221090  .00000467  00000+0  24995-3 0  9991",
        "tle_line2": "2 32095  98.6404  13.0475 0078966  60.9234 299.9819 14.16051909949737"
      },
      "geometry": {
        "type": "Point",
        "coordinates": [
          -177.7959674025095,
          -54.541706999137205
        ]
      }
    },
    {
      "type": "Feature",
      "properties": {
        "norad_id": 32096,
        "name": "FENGYUN 1C DEB",
        "group": "fengyun-1c-debris",
        "lat": -58.681285975229734,
        "lon": 43.20516324221436,
        "alt_km": 1030.1940409496056,
        "timestamp": "2025-12-25T07:00:34.333918+00:00",
        "meta_object_name": "FENGYUN 1C DEB",
        "meta_object_id": "1999-025CQN",
        "meta_epoch": "2025-12-19T20:01:42.439872",
        "meta_mean_motion": 13.90214734,
        "meta_eccentricity": 0.01346293,
        "meta_inclination": 99.0729,
        "meta_ra_of_asc_node": 22.6552,
        "meta_arg_of_pericenter": 120.8024,
        "meta_mean_anomaly": 240.6466,
        "meta_ephemeris_type": 0,
        "meta_classification_type": "U",
        "meta_norad_cat_id": 32096,
        "meta_element_set_no": 999,
        "meta_rev_at_epoch": 92960,
        "meta_bstar": 0.00089068221,
        "meta_mean_motion_dot": 1.144e-05,
        "meta_mean_motion_ddot": 0,
        "tle_line1": "1 32096U 99025CQN 25353.83451898  .00001144  00000+0  89068-3 0  9992",
        "tle_line2": "2 32096  99.0729  22.6552 0134629 120.8024 240.6466 13.90214734929600"
      },
      "geometry": {
        "type": "Point",
        "coordinates": [
          43.20516324221436,
          -58.681285975229734
        ]
      }
    },
    {
      "type": "Feature",
      "properties": {
        "norad_id": 32098,
        "name": "FENGYUN 1C DEB",
        "group": "fengyun-1c-debris",
        "lat": -74.27719683328549,
        "lon": 138.8421144058214,
        "alt_km": 971.7271048454813,
        "timestamp": "2025-12-25T07:00:34.333929+00:00",
        "meta_object_name": "FENGYUN 1C DEB",
        "meta_object_id": "1999-025CQQ",
        "meta_epoch": "2025-12-17T05:04:00.480288",
        "meta_mean_motion": 14.20263212,
        "meta_eccentricity": 0.01958107,
        "meta_inclination": 98.6122,
        "meta_ra_of_asc_node": 343.5394,
        "meta_arg_of_pericenter": 106.9951,
        "meta_mean_anomaly": 255.2785,
        "meta_ephemeris_type": 0,
        "meta_classification_type": "U",
        "meta_norad_cat_id": 32098,
        "meta_element_set_no": 999,
        "meta_rev_at_epoch": 64291,
        "meta_bstar": 0.00022141039,
        "meta_mean_motion_dot": 5.31e-06,
        "meta_mean_motion_ddot": 0,
        "tle_line1": "1 32098U 99025CQQ 25351.21111667  .00000531  00000+0  22141-3 0  9999",
        "tle_line2": "2 32098  98.6122 343.5394 0195810 106.9951 255.2785 14.20263212642917"
      },
      "geometry": {
        "type": "Point",
        "coordinates": [
          138.8421144058214,
          -74.27719683328549
        ]
      }
    }
  ]
}